STARLINK-35283          
1 66478U 25262Y   25345.31672232  .00195292  00000+0  32392-2 0  9991
2 66478  43.0000  79.3398 0001747 260.3131  99.7532 15.50692325  5349
STARLINK-35581          
1 66479U 25262Z   25345.63948336  .00111886  00000+0  18833-2 0  9999
2 66479  43.0004  77.4610 0001589 271.2867  88.7811 15.50617300  5394
STARLINK-35670          
1 66480U 25262AA  25345.63845445  .00134390  00000+0  22532-2 0  9994
2 66480  43.0003  77.4530 0001668 292.4213  67.6471 15.50632185  5390
STARLINK-35698          
1 66481U 25262AB  25345.63811235  .00120658  00000+0  20280-2 0  9995
2 66481  43.0004  77.4498 0001494 285.2045  74.8650 15.50619658  5394
STARLINK-35648          
1 66482U 25262AC  25345.63776833  .00055871  00000+0  95038-3 0  9998
2 66482  43.0001  77.4468 0001673 270.6994  89.3674 15.50608502  5235
STARLINK-35654          
1 66483U 25262AD  25345.63742288  .00147434  00000+0  24663-2 0  9998
2 66483  43.0001  77.4431 0002153 257.4372 102.6247 15.50642502  5393
STARLINK-35371          
1 66484U 25262AE  25345.63708378  .00171103  00000+0  28525-2 0  9992
2 66484  43.0001  77.4416 0001315 288.2599  71.8118 15.50644165  5390
STARLINK-34774          
1 66485U 25263A   25346.16668980  .00028286  00000+0  68293-3 0  9997
2 66485  43.0008 128.7132 0002137 291.1066 310.3782 15.40653245  5541
STARLINK-34844          
1 66486U 25263B   25346.00005786  .00070257  00000+0  11955-2 0  9997
2 66486  43.0003 129.4939 0001697 278.5166 191.4414 15.50512945  5463
STARLINK-34733          
1 66487U 25263C   25345.91668981 -.02044685  00000+0 -43703-1 0  9994
2 66487  43.0002 129.9882 0001603 277.4229  84.6221 15.47459340  5509
STARLINK-35515          
1 66488U 25263D   25346.00005786  .00097031  00000+0  16438-2 0  9999
2 66488  43.0003 129.4852 0001647 273.2757 200.5218 15.50502124  5510
STARLINK-35696          
1 66489U 25263E   25346.00005786  .00069973  00000+0  11909-2 0  9992
2 66489  43.0003 129.4797 0001762 268.2838 207.4369 15.50507446  5516
