CCSDS_OMM_VERS = 2.0
CREATION_DATE  = 
ORIGINATOR     = 

OBJECT_NAME    = STARLINK-35283
OBJECT_ID      = 2025-262Y
CENTER_NAME    = EARTH
REF_FRAME      = TEME
TIME_SYSTEM    = UTC
MEAN_ELEMENT_THEORY = SGP/SGP4

EPOCH          = 2025-12-11T07:36:04.808448
MEAN_MOTION    = 15.50692325
ECCENTRICITY   = .00017473
INCLINATION    = 43.0000
RA_OF_ASC_NODE = 79.3398
ARG_OF_PERICENTER = 260.3131
MEAN_ANOMALY   = 99.7532

EPHEMERIS_TYPE = 0
CLASSIFICATION_TYPE = U
NORAD_CAT_ID   = 66478
ELEMENT_SET_NO = 999
REV_AT_EPOCH   = 534
BSTAR          = .32392192E-2
MEAN_MOTION_DOT = .195292E-2
MEAN_MOTION_DDOT = 0

CCSDS_OMM_VERS = 2.0
CREATION_DATE  = 
ORIGINATOR     = 

OBJECT_NAME    = STARLINK-35581
OBJECT_ID      = 2025-262Z
CENTER_NAME    = EARTH
REF_FRAME      = TEME
TIME_SYSTEM    = UTC
MEAN_ELEMENT_THEORY = SGP/SGP4

EPOCH          = 2025-12-11T15:20:51.362304
MEAN_MOTION    = 15.50617300
ECCENTRICITY   = .00015898
INCLINATION    = 43.0004
RA_OF_ASC_NODE = 77.4610
ARG_OF_PERICENTER = 271.2867
MEAN_ANOMALY   = 88.7811

EPHEMERIS_TYPE = 0
CLASSIFICATION_TYPE = U
NORAD_CAT_ID   = 66479
ELEMENT_SET_NO = 999
REV_AT_EPOCH   = 539
BSTAR          = .18832674E-2
MEAN_MOTION_DOT = .111886E-2
MEAN_MOTION_DDOT = 0

CCSDS_OMM_VERS = 2.0
CREATION_DATE  = 
ORIGINATOR     = 

OBJECT_NAME    = STARLINK-35670
OBJECT_ID      = 2025-262AA
CENTER_NAME    = EARTH
REF_FRAME      = TEME
TIME_SYSTEM    = UTC
MEAN_ELEMENT_THEORY = SGP/SGP4

EPOCH          = 2025-12-11T15:19:22.464480
MEAN_MOTION    = 15.50632185
ECCENTRICITY   = .00016686
INCLINATION    = 43.0003
RA_OF_ASC_NODE = 77.4530
ARG_OF_PERICENTER = 292.4213
MEAN_ANOMALY   = 67.6471

EPHEMERIS_TYPE = 0
CLASSIFICATION_TYPE = U
NORAD_CAT_ID   = 66480
ELEMENT_SET_NO = 999
REV_AT_EPOCH   = 539
BSTAR          = .22531818E-2
MEAN_MOTION_DOT = .13439E-2
MEAN_MOTION_DDOT = 0

CCSDS_OMM_VERS = 2.0
CREATION_DATE  = 
ORIGINATOR     = 

OBJECT_NAME    = STARLINK-35698
OBJECT_ID      = 2025-262AB
CENTER_NAME    = EARTH
REF_FRAME      = TEME
TIME_SYSTEM    = UTC
MEAN_ELEMENT_THEORY = SGP/SGP4

EPOCH          = 2025-12-11T15:18:52.907040
MEAN_MOTION    = 15.50619658
ECCENTRICITY   = .00014945
INCLINATION    = 43.0004
RA_OF_ASC_NODE = 77.4498
ARG_OF_PERICENTER = 285.2045
MEAN_ANOMALY   = 74.8650

EPHEMERIS_TYPE = 0
CLASSIFICATION_TYPE = U
NORAD_CAT_ID   = 66481
ELEMENT_SET_NO = 999
REV_AT_EPOCH   = 539
BSTAR          = .20280216E-2
MEAN_MOTION_DOT = .120658E-2
MEAN_MOTION_DDOT = 0

CCSDS_OMM_VERS = 2.0
CREATION_DATE  = 
ORIGINATOR     = 

OBJECT_NAME    = STARLINK-35648
OBJECT_ID      = 2025-262AC
CENTER_NAME    = EARTH
REF_FRAME      = TEME
TIME_SYSTEM    = UTC
MEAN_ELEMENT_THEORY = SGP/SGP4

EPOCH          = 2025-12-11T15:18:23.183712
MEAN_MOTION    = 15.50608502
ECCENTRICITY   = .00016735
INCLINATION    = 43.0001
RA_OF_ASC_NODE = 77.4468
ARG_OF_PERICENTER = 270.6994
MEAN_ANOMALY   = 89.3674

EPHEMERIS_TYPE = 0
CLASSIFICATION_TYPE = U
NORAD_CAT_ID   = 66482
ELEMENT_SET_NO = 999
REV_AT_EPOCH   = 523
BSTAR          = .95038499E-3
MEAN_MOTION_DOT = .55871E-3
MEAN_MOTION_DDOT = 0

CCSDS_OMM_VERS = 2.0
CREATION_DATE  = 
ORIGINATOR     = 

OBJECT_NAME    = STARLINK-35654
OBJECT_ID      = 2025-262AD
CENTER_NAME    = EARTH
REF_FRAME      = TEME
TIME_SYSTEM    = UTC
MEAN_ELEMENT_THEORY = SGP/SGP4

EPOCH          = 2025-12-11T15:17:53.336832
MEAN_MOTION    = 15.50642502
ECCENTRICITY   = .00021538
INCLINATION    = 43.0001
RA_OF_ASC_NODE = 77.4431
ARG_OF_PERICENTER = 257.4372
MEAN_ANOMALY   = 102.6247

EPHEMERIS_TYPE = 0
CLASSIFICATION_TYPE = U
NORAD_CAT_ID   = 66483
ELEMENT_SET_NO = 999
REV_AT_EPOCH   = 539
BSTAR          = .2466252E-2
MEAN_MOTION_DOT = .147434E-2
MEAN_MOTION_DDOT = 0

CCSDS_OMM_VERS = 2.0
CREATION_DATE  = 
ORIGINATOR     = 

OBJECT_NAME    = STARLINK-35371
OBJECT_ID      = 2025-262AE
CENTER_NAME    = EARTH
REF_FRAME      = TEME
TIME_SYSTEM    = UTC
MEAN_ELEMENT_THEORY = SGP/SGP4

EPOCH          = 2025-12-11T15:17:24.038592
MEAN_MOTION    = 15.50644165
ECCENTRICITY   = .00013158
INCLINATION    = 43.0001
RA_OF_ASC_NODE = 77.4416
ARG_OF_PERICENTER = 288.2599
MEAN_ANOMALY   = 71.8118

EPHEMERIS_TYPE = 0
CLASSIFICATION_TYPE = U
NORAD_CAT_ID   = 66484
ELEMENT_SET_NO = 999
REV_AT_EPOCH   = 539
BSTAR          = .28524623E-2
MEAN_MOTION_DOT = .171103E-2
MEAN_MOTION_DDOT = 0

CCSDS_OMM_VERS = 2.0
CREATION_DATE  = 
ORIGINATOR     = 

OBJECT_NAME    = STARLINK-34774
OBJECT_ID      = 2025-263A
CENTER_NAME    = EARTH
REF_FRAME      = TEME
TIME_SYSTEM    = UTC
MEAN_ELEMENT_THEORY = SGP/SGP4

EPOCH          = 2025-12-12T04:00:01.998720
MEAN_MOTION    = 15.40653245
ECCENTRICITY   = .0002137
INCLINATION    = 43.0008
RA_OF_ASC_NODE = 128.7132
ARG_OF_PERICENTER = 291.1066
MEAN_ANOMALY   = 310.3782

EPHEMERIS_TYPE = 0
CLASSIFICATION_TYPE = U
NORAD_CAT_ID   = 66485
ELEMENT_SET_NO = 999
REV_AT_EPOCH   = 554
BSTAR          = .68293E-3
MEAN_MOTION_DOT = .28286E-3
MEAN_MOTION_DDOT = 0

CCSDS_OMM_VERS = 2.0
CREATION_DATE  = 
ORIGINATOR     = 

OBJECT_NAME    = STARLINK-34844
OBJECT_ID      = 2025-263B
CENTER_NAME    = EARTH
REF_FRAME      = TEME
TIME_SYSTEM    = UTC
MEAN_ELEMENT_THEORY = SGP/SGP4

EPOCH          = 2025-12-12T00:00:04.999104
MEAN_MOTION    = 15.50512945
ECCENTRICITY   = .0001697
INCLINATION    = 43.0003
RA_OF_ASC_NODE = 129.4939
ARG_OF_PERICENTER = 278.5166
MEAN_ANOMALY   = 191.4414

EPHEMERIS_TYPE = 0
CLASSIFICATION_TYPE = U
NORAD_CAT_ID   = 66486
ELEMENT_SET_NO = 999
REV_AT_EPOCH   = 546
BSTAR          = .11955E-2
MEAN_MOTION_DOT = .70257E-3
MEAN_MOTION_DDOT = 0

CCSDS_OMM_VERS = 2.0
CREATION_DATE  = 
ORIGINATOR     = 

OBJECT_NAME    = STARLINK-34733
OBJECT_ID      = 2025-263C
CENTER_NAME    = EARTH
REF_FRAME      = TEME
TIME_SYSTEM    = UTC
MEAN_ELEMENT_THEORY = SGP/SGP4

EPOCH          = 2025-12-11T22:00:01.999584
MEAN_MOTION    = 15.47459340
ECCENTRICITY   = .00016039
INCLINATION    = 43.0002
RA_OF_ASC_NODE = 129.9882
ARG_OF_PERICENTER = 277.4229
MEAN_ANOMALY   = 84.6221

EPHEMERIS_TYPE = 0
CLASSIFICATION_TYPE = U
NORAD_CAT_ID   = 66487
ELEMENT_SET_NO = 999
REV_AT_EPOCH   = 550
BSTAR          = -.43703264E-1
MEAN_MOTION_DOT = -.2044685E-1
MEAN_MOTION_DDOT = 0

CCSDS_OMM_VERS = 2.0
CREATION_DATE  = 
ORIGINATOR     = 

OBJECT_NAME    = STARLINK-35515
OBJECT_ID      = 2025-263D
CENTER_NAME    = EARTH
REF_FRAME      = TEME
TIME_SYSTEM    = UTC
MEAN_ELEMENT_THEORY = SGP/SGP4

EPOCH          = 2025-12-12T00:00:04.999104
MEAN_MOTION    = 15.50502124
ECCENTRICITY   = .0001647
INCLINATION    = 43.0003
RA_OF_ASC_NODE = 129.4852
ARG_OF_PERICENTER = 273.2757
MEAN_ANOMALY   = 200.5218

EPHEMERIS_TYPE = 0
CLASSIFICATION_TYPE = U
NORAD_CAT_ID   = 66488
ELEMENT_SET_NO = 999
REV_AT_EPOCH   = 551
BSTAR          = .16438E-2
MEAN_MOTION_DOT = .97031E-3
MEAN_MOTION_DDOT = 0

CCSDS_OMM_VERS = 2.0
CREATION_DATE  = 
ORIGINATOR     = 

OBJECT_NAME    = STARLINK-35696
OBJECT_ID      = 2025-263E
CENTER_NAME    = EARTH
REF_FRAME      = TEME
TIME_SYSTEM    = UTC
MEAN_ELEMENT_THEORY = SGP/SGP4

EPOCH          = 2025-12-12T00:00:04.999104
MEAN_MOTION    = 15.50507446
ECCENTRICITY   = .0001762
INCLINATION    = 43.0003
RA_OF_ASC_NODE = 129.4797
ARG_OF_PERICENTER = 268.2838
MEAN_ANOMALY   = 207.4369

EPHEMERIS_TYPE = 0
CLASSIFICATION_TYPE = U
NORAD_CAT_ID   = 66489
ELEMENT_SET_NO = 999
REV_AT_EPOCH   = 551
BSTAR          = .11909E-2
MEAN_MOTION_DOT = .69973E-3
MEAN_MOTION_DDOT = 0

